OBJECT_NAME,OBJECT_ID,EPOCH,MEAN_MOTION,ECCENTRICITY,INCLINATION,RA_OF_ASC_NODE,ARG_OF_PERICENTER,MEAN_ANOMALY,EPHEMERIS_TYPE,CLASSIFICATION_TYPE,NORAD_CAT_ID,ELEMENT_SET_NO,REV_AT_EPOCH,BSTAR,MEAN_MOTION_DOT,MEAN_MOTION_DDOT
SKY MUSTER 2 (NBN1B),2016-060B,2026-06-14T12:05:06.185184,1.00269316,.00012954,0.0165,324.3266,117.3510,147.2066,0,U,41794,999,3549,0,-.237E-5,0
HIMAWARI-9,2016-064A,2026-06-14T15:52:55.295904,1.00269877,.00008103,0.0507,146.7815,353.0152,142.1617,0,U,41836,999,3518,0,-.268E-5,0
SHIJIAN-17 (SJ-17),2016-065A,2026-06-14T12:20:24.317376,0.99853899,.0001717,5.7460,72.6363,28.9144,226.1645,0,U,41838,999,3517,0,.58E-6,0
GOES 16,2016-071A,2026-06-14T14:19:16.993344,1.00270919,.00002091,0.3343,85.5165,299.5190,347.9900,0,U,41866,999,3507,0,-.84E-6,0
TIANLIAN 1-04,2016-072A,2026-06-14T13:56:56.633856,1.00270972,.00422335,0.8612,82.9357,89.7869,116.1812,0,U,41869,999,3527,0,.37E-6,0
WGS F8 (USA 272),2016-075A,2026-06-13T15:34:37.341120,1.00265515,.0000126,0.0398,45.6198,258.1421,341.6687,0,U,41879,999,3478,0,0,0
FENGYUN 4A,2016-077A,2026-06-14T15:44:09.244320,1.00269879,.00086834,2.3150,80.3122,153.0661,29.3897,0,U,41882,999,3490,0,-.352E-5,0
ECHOSTAR 19,2016-079A,2026-06-14T14:21:24.289056,1.00271676,.00011415,0.0154,21.8955,61.1236,298.1271,0,U,41893,999,3467,0,-.132E-5,0
JCSAT-110A (JCSAT-15),2016-082A,2026-06-14T15:06:18.978912,1.00269904,.00003751,0.0171,355.8848,117.3061,126.3837,0,U,41903,999,3473,0,-.344E-5,0
STAR ONE D1,2016-082B,2026-06-14T12:42:27.529920,1.00271618,.00022898,0.0163,41.8966,53.2044,274.3495,0,U,41904,999,3474,0,-.204E-5,0
TJS-2,2017-001A,2026-06-14T13:25:23.413728,1.00273008,.00004882,0.8267,85.3574,47.5342,37.8863,0,U,41911,999,3469,0,-.1E-7,0
SBIRS GEO-4 (USA 273),2017-004A,2026-06-14T13:12:24.659424,1.00271729,.00018852,2.2378,43.2092,32.4462,46.1966,0,U,41937,999,3457,0,.129E-5,0
HISPASAT 36W-1,2017-006A,2026-06-14T09:30:51.766272,1.00268866,.00009297,0.0104,288.3335,152.0838,289.0022,0,U,41942,999,3421,0,-.237E-5,0
TELKOM 3S,2017-007A,2026-06-14T15:26:48.344640,1.00272269,.00020234,0.0150,39.4208,39.1453,174.0829,0,U,41944,999,3411,0,-.356E-5,0
INTELSAT 32E (IS-32E),2017-007B,2026-06-14T11:11:24.578880,1.00275059,.00006869,0.0065,311.3526,1.8427,74.2518,0,U,41945,999,3419,0,-.261E-5,0
ECHOSTAR 23,2017-014A,2026-06-14T12:09:38.892960,1.00270614,.00020463,0.0168,343.5316,100.4863,251.3057,0,U,42070,999,3389,0,-.5E-6,0
WGS F9 (USA 275),2017-016A,2026-06-14T09:37:43.608288,1.00267740,.00004461,0.0185,321.5132,352.1769,81.4352,0,U,42075,999,3386,0,-.89E-6,0
SES-10,2017-017A,2026-06-14T08:12:38.754144,1.00270280,.00025798,0.0200,30.3497,64.2852,224.2782,0,U,42432,999,3372,0,-.265E-5,0
CHINASAT 16 (SJ-13),2017-018A,2026-06-13T19:10:07.709376,1.00270352,.00041349,0.0979,91.8924,136.9021,71.3905,0,U,42662,999,3371,0,-.342E-5,0
KOREASAT 7,2017-023A,2026-06-14T15:41:03.291648,1.00271911,.00007829,0.0235,24.5696,57.8897,171.6513,0,U,42691,999,3334,0,-.355E-5,0
SGDC,2017-023B,2026-06-14T11:28:24.509280,1.00271559,.00024452,0.0452,76.6977,15.5040,267.8288,0,U,42692,999,3337,0,-.242E-5,0
GSAT-9,2017-024A,2026-06-14T15:23:32.246880,1.00270190,.00025807,0.0043,25.3783,55.8138,149.9796,0,U,42695,999,3327,0,-.28E-5,0
INMARSAT 5-F4,2017-025A,2026-06-14T09:57:04.254048,1.00267417,.00010197,0.0187,19.9778,344.2716,104.2112,0,U,42698,999,3325,0,.84E-6,0
SES-15,2017-026A,2026-06-14T12:14:38.574816,1.00268126,.00003614,0.0196,336.5575,56.3484,284.3912,0,U,42709,999,740,0,.67E-6,0
QZS-2 (MICHIBIKI-2),2017-028A,2026-06-09T12:56:43.810944,1.00285994,.07605811,39.4388,243.2674,269.1776,81.0235,0,U,42738,999,754,0,-.147E-5,0
VIASAT-2,2017-029A,2026-06-14T14:29:01.059936,1.00271407,.0000165,0.0176,298.7981,45.9290,65.5376,0,U,42740,999,3317,0,-.258E-5,0
EUTELSAT 172B,2017-029B,2026-06-14T13:16:38.513856,1.00271281,.00002487,0.0124,84.4258,133.5970,56.0143,0,U,42741,999,3371,0,.1E-7,0
GSAT-19,2017-031A,2026-06-14T13:20:08.916864,1.00273606,.00071056,0.0452,265.8980,160.2741,84.5831,0,U,42747,999,3312,0,.132E-5,0
ECHOSTAR 21,2017-032A,2026-06-14T14:51:58.858272,1.00272401,.00020255,1.7712,355.5357,95.7066,44.9383,0,U,42749,999,3307,0,.72E-6,0
BULGARIASAT-1,2017-038A,2026-06-14T14:49:36.585120,1.00271225,.00031631,0.0128,354.8855,99.4575,32.8819,0,U,42801,999,3282,0,.18E-6,0
HELLAS-SAT 3,2017-040A,2026-06-14T15:00:13.068000,1.00269838,.00047259,0.0434,37.6494,14.4829,114.8299,0,U,42814,999,3278,0,.159E-5,0
GSAT-17,2017-040B,2026-06-14T15:27:19.898784,1.00269238,.00021308,0.0206,351.2806,314.9723,282.0188,0,U,42815,999,3276,0,0,0
