{"id":"41794","noradId":"41794","name":"SKY MUSTER 2 (NBN1B)","line1":"1 41794U 16060B   26165.50354381 -.00000237  00000+0  00000+0 0  9998","line2":"2 41794   0.0165 324.3266 0001295 117.3510 147.2066  1.00269316 35495","kind":"satellite","owner":"AUS","country":"AUS","countryCode":"AUS","objectType":"PAYLOAD","intlDesignator":"2016-060B","launchDate":"2016-10-05","rcs":"SMALL","rcsM2":0.003,"periodMinutes":1436.13,"inclinationDeg":0.02,"apogeeKm":35793,"perigeeKm":35782,"source":"offline","sourceUrl":"https://celestrak.org/NORAD/elements/gp.php?GROUP=geo&FORMAT=tle","tleEpochUtc":"2026-06-14T12:05:06.185Z","orbitClass":"GEO"},{"id":"41836","noradId":"41836","name":"HIMAWARI-9","line1":"1 41836U 16064A   26165.66175111 -.00000268  00000+0  00000+0 0  9992","line2":"2 41836   0.0507 146.7815 0000810 353.0152 142.1617  1.00269877 35185","kind":"satellite","owner":"Japan (JAXA)","country":"Japan (JAXA)","countryCode":"JPN","objectType":"PAYLOAD","intlDesignator":"2016-064A","launchDate":"2016-11-02","rcs":"LARGE","rcsM2":38.791,"periodMinutes":1436.12,"inclinationDeg":0.05,"apogeeKm":35790,"perigeeKm":35784,"source":"offline","sourceUrl":"https://celestrak.org/NORAD/elements/gp.php?GROUP=geo&FORMAT=tle","tleEpochUtc":"2026-06-14T15:52:55.295Z","orbitClass":"GEO"},{"id":"41838","noradId":"41838","name":"SHIJIAN-17 (SJ-17)","line1":"1 41838U 16065A   26165.51417034  .00000058  00000+0  00000+0 0  9998","line2":"2 41838   5.7460  72.6363 0001717  28.9144 226.1645  0.99853899 35171","kind":"satellite","owner":"China (CNSA)","country":"China (CNSA)","countryCode":"PRC","objectType":"PAYLOAD","intlDesignator":"2016-065A","launchDate":"2016-11-03","rcs":"LARGE","rcsM2":19.83,"periodMinutes":1442.11,"inclinationDeg":5.74,"apogeeKm":35911,"perigeeKm":35897,"source":"offline","sourceUrl":"https://celestrak.org/NORAD/elements/gp.php?GROUP=geo&FORMAT=tle","tleEpochUtc":"2026-06-14T12:20:24.317Z","orbitClass":"GEO"},{"id":"41866","noradId":"41866","name":"GOES 16","line1":"1 41866U 16071A   26165.59672446 -.00000084  00000+0  00000+0 0  9994","line2":"2 41866   0.3343  85.5165 0000209 299.5190 347.9900  1.00270919 35072","kind":"satellite","owner":"NOAA","country":"United States","countryCode":"US","objectType":"PAYLOAD","intlDesignator":"2016-071A","launchDate":"2016-11-19","rcs":"LARGE","rcsM2":13.1623,"periodMinutes":1436.12,"inclinationDeg":0.33,"apogeeKm":35788,"perigeeKm":35786,"source":"offline","sourceUrl":"https://celestrak.org/NORAD/elements/gp.php?GROUP=geo&FORMAT=tle","tleEpochUtc":"2026-06-14T14:19:16.993Z","orbitClass":"GEO"},{"id":"41869","noradId":"41869","name":"TIANLIAN 1-04","line1":"1 41869U 16072A   26165.58121104  .00000037  00000+0  00000+0 0  9994","line2":"2 41869   0.8612  82.9357 0042233  89.7869 116.1812  1.00270972 35277","kind":"satellite","owner":"China (CNSA)","country":"China (CNSA)","countryCode":"PRC","objectType":"PAYLOAD","intlDesignator":"2016-072A","launchDate":"2016-11-22","rcs":"LARGE","rcsM2":21.9479,"periodMinutes":1436.11,"inclinationDeg":0.86,"apogeeKm":35965,"perigeeKm":35609,"source":"offline","sourceUrl":"https://celestrak.org/NORAD/elements/gp.php?GROUP=geo&FORMAT=tle","tleEpochUtc":"2026-06-14T13:56:56.633Z","orbitClass":"GEO"},{"id":"41879","noradId":"41879","name":"WGS F8 (USA 272)","line1":"1 41879U 16075A   26164.64904330  .00000000  00000+0  00000+0 0  9994","line2":"2 41879   0.0398  45.6198 0000126 258.1421 341.6687  1.00265515 34788","kind":"satellite","owner":"United States","country":"United States","countryCode":"US","objectType":"PAYLOAD","intlDesignator":"2016-075A","launchDate":"2016-12-07","periodMinutes":1436.19,"inclinationDeg":0.04,"apogeeKm":35789,"perigeeKm":35788,"source":"offline","sourceUrl":"https://celestrak.org/NORAD/elements/gp.php?GROUP=geo&FORMAT=tle","tleEpochUtc":"2026-06-13T15:34:37.341Z","orbitClass":"GEO"},{"id":"41882","noradId":"41882","name":"FENGYUN 4A","line1":"1 41882U 16077A   26165.65566255 -.00000352  00000+0  00000+0 0  9993","line2":"2 41882   2.3150  80.3122 0008683 153.0661  29.3897  1.00269879 34905","kind":"satellite","owner":"China (CNSA)","country":"China (CNSA)","countryCode":"PRC","objectType":"PAYLOAD","intlDesignator":"2016-077A","launchDate":"2016-12-10","rcs":"LARGE","rcsM2":22.5893,"periodMinutes":1436.11,"inclinationDeg":2.31,"apogeeKm":35823,"perigeeKm":35750,"source":"offline","sourceUrl":"https://celestrak.org/NORAD/elements/gp.php?GROUP=geo&FORMAT=tle","tleEpochUtc":"2026-06-14T15:44:09.244Z","orbitClass":"GEO"},{"id":"41893","noradId":"41893","name":"ECHOSTAR 19","line1":"1 41893U 16079A   26165.59819779 -.00000132  00000+0  00000+0 0  9998","line2":"2 41893   0.0154  21.8955 0001141  61.1236 298.1271  1.00271676 34673","kind":"satellite","owner":"United States","country":"United States","countryCode":"US","objectType":"PAYLOAD","intlDesignator":"2016-079A","launchDate":"2016-12-18","rcs":"LARGE","rcsM2":7.191,"periodMinutes":1436.13,"inclinationDeg":0.02,"apogeeKm":35792,"perigeeKm":35782,"source":"offline","sourceUrl":"https://celestrak.org/NORAD/elements/gp.php?GROUP=geo&FORMAT=tle","tleEpochUtc":"2026-06-14T14:21:24.289Z","orbitClass":"GEO"},{"id":"41903","noradId":"41903","name":"JCSAT-110A (JCSAT-15)","line1":"1 41903U 16082A   26165.62938633 -.00000344  00000+0  00000+0 0  9994","line2":"2 41903   0.0171 355.8848 0000375 117.3061 126.3837  1.00269904 34731","kind":"satellite","owner":"Japan (JAXA)","country":"Japan (JAXA)","countryCode":"JPN","objectType":"PAYLOAD","intlDesignator":"2016-082A","launchDate":"2016-12-21","rcs":"LARGE","rcsM2":71.039,"periodMinutes":1436.08,"inclinationDeg":0.02,"apogeeKm":35788,"perigeeKm":35784,"source":"offline","sourceUrl":"https://celestrak.org/NORAD/elements/gp.php?GROUP=geo&FORMAT=tle","tleEpochUtc":"2026-06-14T15:06:18.978Z","orbitClass":"GEO"},{"id":"41904","noradId":"41904","name":"STAR ONE D1","line1":"1 41904U 16082B   26165.52948530 -.00000204  00000+0  00000+0 0  9996","line2":"2 41904   0.0163  41.8966 0002289  53.2044 274.3495  1.00271618 34741","kind":"satellite","owner":"BRAZ","country":"BRAZ","countryCode":"BRAZ","objectType":"PAYLOAD","intlDesignator":"2016-082B","launchDate":"2016-12-21","rcs":"SMALL","rcsM2":0.003,"periodMinutes":1436.1,"inclinationDeg":0.01,"apogeeKm":35796,"perigeeKm":35777,"source":"offline","sourceUrl":"https://celestrak.org/NORAD/elements/gp.php?GROUP=geo&FORMAT=tle","tleEpochUtc":"2026-06-14T12:42:27.529Z","orbitClass":"GEO"},{"id":"41911","noradId":"41911","name":"TJS-2","line1":"1 41911U 17001A   26165.55929877 -.00000001  00000+0  00000+0 0  9997","line2":"2 41911   0.8267  85.3574 0000488  47.5342  37.8863  1.00273008 34696","kind":"satellite","owner":"China (CNSA)","country":"China (CNSA)","countryCode":"PRC","objectType":"PAYLOAD","intlDesignator":"2017-001A","launchDate":"2017-01-05","rcs":"LARGE","rcsM2":43.7918,"periodMinutes":1436.08,"inclinationDeg":0.82,"apogeeKm":35788,"perigeeKm":35784,"source":"offline","sourceUrl":"https://celestrak.org/NORAD/elements/gp.php?GROUP=geo&FORMAT=tle","tleEpochUtc":"2026-06-14T13:25:23.413Z","orbitClass":"GEO"},{"id":"41937","noradId":"41937","name":"SBIRS GEO-4 (USA 273)","line1":"1 41937U 17004A   26165.55028541  .00000129  00000+0  00000+0 0  9996","line2":"2 41937   2.2378  43.2092 0001885  32.4462  46.1966  1.00271729 34571","kind":"satellite","owner":"United States","country":"United States","countryCode":"US","objectType":"PAYLOAD","intlDesignator":"2017-004A","launchDate":"2017-01-21","periodMinutes":1436.1,"inclinationDeg":2.24,"apogeeKm":35795,"perigeeKm":35779,"source":"offline","sourceUrl":"https://celestrak.org/NORAD/elements/gp.php?GROUP=geo&FORMAT=tle","tleEpochUtc":"2026-06-14T13:12:24.659Z","orbitClass":"GEO"},{"id":"41942","noradId":"41942","name":"HISPASAT 36W-1","line1":"1 41942U 17006A   26165.39643248 -.00000237  00000+0  00000+0 0  9994","line2":"2 41942   0.0104 288.3335 0000929 152.0838 289.0022  1.00268866 34216","kind":"satellite","owner":"SPN","country":"SPN","countryCode":"SPN","objectType":"PAYLOAD","intlDesignator":"2017-006A","launchDate":"2017-01-28","rcs":"LARGE","rcsM2":3.1648,"periodMinutes":1436.05,"inclinationDeg":0.01,"apogeeKm":35790,"perigeeKm":35781,"source":"offline","sourceUrl":"https://celestrak.org/NORAD/elements/gp.php?GROUP=geo&FORMAT=tle","tleEpochUtc":"2026-06-14T09:30:51.766Z","orbitClass":"GEO"},{"id":"41944","noradId":"41944","name":"TELKOM 3S","line1":"1 41944U 17007A   26165.64361510 -.00000356  00000+0  00000+0 0  9996","line2":"2 41944   0.0150  39.4208 0002023  39.1453 174.0829  1.00272269 34117","kind":"satellite","owner":"INDO","country":"INDO","countryCode":"INDO","objectType":"PAYLOAD","intlDesignator":"2017-007A","launchDate":"2017-02-14","rcs":"LARGE","rcsM2":10.8657,"periodMinutes":1436.09,"inclinationDeg":0.02,"apogeeKm":35795,"perigeeKm":35778,"source":"offline","sourceUrl":"https://celestrak.org/NORAD/elements/gp.php?GROUP=geo&FORMAT=tle","tleEpochUtc":"2026-06-14T15:26:48.344Z","orbitClass":"GEO"},{"id":"41945","noradId":"41945","name":"INTELSAT 32E (IS-32E)","line1":"1 41945U 17007B   26165.46625670 -.00000261  00000+0  00000+0 0  9992","line2":"2 41945   0.0065 311.3526 0000686   1.8427  74.2518  1.00275059 34192","kind":"satellite","owner":"Commercial GEO","country":"ITSO","countryCode":"ITSO","objectType":"PAYLOAD","intlDesignator":"2017-007B","launchDate":"2017-02-14","rcs":"LARGE","rcsM2":14.7367,"periodMinutes":1436.05,"apogeeKm":35789,"perigeeKm":35783,"source":"offline","sourceUrl":"https://celestrak.org/NORAD/elements/gp.php?GROUP=geo&FORMAT=tle","tleEpochUtc":"2026-06-14T11:11:24.578Z","orbitClass":"GEO"},{"id":"42070","noradId":"42070","name":"ECHOSTAR 23","line1":"1 42070U 17014A   26165.50670015 -.00000050  00000+0  00000+0 0  9994","line2":"2 42070   0.0168 343.5316 0002046 100.4863 251.3057  1.00270614 33896","kind":"satellite","owner":"United States","country":"United States","countryCode":"US","objectType":"PAYLOAD","intlDesignator":"2017-014A","launchDate":"2017-03-16","rcs":"LARGE","rcsM2":13.1623,"periodMinutes":1436.13,"apogeeKm":35796,"perigeeKm":35778,"source":"offline","sourceUrl":"https://celestrak.org/NORAD/elements/gp.php?GROUP=geo&FORMAT=tle","tleEpochUtc":"2026-06-14T12:09:38.892Z","orbitClass":"GEO"},{"id":"42075","noradId":"42075","name":"WGS F9 (USA 275)","line1":"1 42075U 17016A   26165.40119917 -.00000089  00000+0  00000+0 0  9991","line2":"2 42075   0.0185 321.5132 0000446 352.1769  81.4352  1.00267740 33868","kind":"satellite","owner":"United States","country":"United States","countryCode":"US","objectType":"PAYLOAD","intlDesignator":"2017-016A","launchDate":"2017-03-19","periodMinutes":1436.12,"inclinationDeg":0.01,"apogeeKm":35788,"perigeeKm":35786,"source":"offline","sourceUrl":"https://celestrak.org/NORAD/elements/gp.php?GROUP=geo&FORMAT=tle","tleEpochUtc":"2026-06-14T09:37:43.608Z","orbitClass":"GEO"},{"id":"42432","noradId":"42432","name":"SES-10","line1":"1 42432U 17017A   26165.34211521 -.00000265  00000+0  00000+0 0  9992","line2":"2 42432   0.0200  30.3497 0002579  64.2852 224.2782  1.00270280 33727","kind":"satellite","owner":"Commercial GEO","country":"SES","countryCode":"SES","objectType":"PAYLOAD","intlDesignator":"2017-017A","launchDate":"2017-03-30","rcs":"LARGE","rcsM2":6.493,"periodMinutes":1436.16,"inclinationDeg":0.02,"apogeeKm":35799,"perigeeKm":35777,"source":"offline","sourceUrl":"https://celestrak.org/NORAD/elements/gp.php?GROUP=geo&FORMAT=tle","tleEpochUtc":"2026-06-14T08:12:38.754Z","orbitClass":"GEO"},{"id":"42662","noradId":"42662","name":"CHINASAT 16 (SJ-13)","line1":"1 42662U 17018A   26164.79870034 -.00000342  00000+0  00000+0 0  9992","line2":"2 42662   0.0979  91.8924 0004134 136.9021  71.3905  1.00270352 33713","kind":"satellite","owner":"China (CNSA)","country":"China (CNSA)","countryCode":"PRC","objectType":"PAYLOAD","intlDesignator":"2017-018A","launchDate":"2017-04-12","rcs":"LARGE","rcsM2":12.3708,"periodMinutes":1436.12,"inclinationDeg":0.1,"apogeeKm":35804,"perigeeKm":35771,"source":"offline","sourceUrl":"https://celestrak.org/NORAD/elements/gp.php?GROUP=geo&FORMAT=tle","tleEpochUtc":"2026-06-13T19:10:07.709Z","orbitClass":"GEO"},{"id":"42691","noradId":"42691","name":"KOREASAT 7","line1":"1 42691U 17023A   26165.65351032 -.00000355  00000+0  00000+0 0  9992","line2":"2 42691   0.0235  24.5696 0000782  57.8897 171.6513  1.00271911 33346","kind":"satellite","owner":"South Korea","country":"South Korea","countryCode":"SKOR","objectType":"PAYLOAD","intlDesignator":"2017-023A","launchDate":"2017-05-04","periodMinutes":1436.09,"inclinationDeg":0.02,"apogeeKm":35790,"perigeeKm":35783,"source":"offline","sourceUrl":"https://celestrak.org/NORAD/elements/gp.php?GROUP=geo&FORMAT=tle","tleEpochUtc":"2026-06-14T15:41:03.291Z","orbitClass":"GEO"},{"id":"42692","noradId":"42692","name":"SGDC","line1":"1 42692U 17023B   26165.47806145 -.00000242  00000+0  00000+0 0  9998","line2":"2 42692   0.0452  76.6977 0002445  15.5040 267.8288  1.00271559 33375","kind":"satellite","owner":"BRAZ","country":"BRAZ","countryCode":"BRAZ","objectType":"PAYLOAD","intlDesignator":"2017-023B","launchDate":"2017-05-04","periodMinutes":1436.09,"inclinationDeg":0.04,"apogeeKm":35797,"perigeeKm":35776,"source":"offline","sourceUrl":"https://celestrak.org/NORAD/elements/gp.php?GROUP=geo&FORMAT=tle","tleEpochUtc":"2026-06-14T11:28:24.509Z","orbitClass":"GEO"},{"id":"42695","noradId":"42695","name":"GSAT-9","line1":"1 42695U 17024A   26165.64134545 -.00000280  00000+0  00000+0 0  9991","line2":"2 42695   0.0043  25.3783 0002580  55.8138 149.9796  1.00270190 33278","kind":"satellite","owner":"ISRO","country":"India (ISRO)","countryCode":"IND","objectType":"PAYLOAD","intlDesignator":"2017-024A","launchDate":"2017-05-05","periodMinutes":1436.12,"apogeeKm":35798,"perigeeKm":35776,"source":"offline","sourceUrl":"https://celestrak.org/NORAD/elements/gp.php?GROUP=geo&FORMAT=tle","tleEpochUtc":"2026-06-14T15:23:32.246Z","orbitClass":"GEO"},{"id":"42698","noradId":"42698","name":"INMARSAT 5-F4","line1":"1 42698U 17025A   26165.41463257  .00000084  00000+0  00000+0 0  9996","line2":"2 42698   0.0187  19.9778 0001019 344.2716 104.2112  1.00267417 33258","kind":"satellite","owner":"IM","country":"IM","countryCode":"IM","objectType":"PAYLOAD","intlDesignator":"2017-025A","launchDate":"2017-05-15","periodMinutes":1436.08,"inclinationDeg":0.02,"apogeeKm":35788,"perigeeKm":35784,"source":"offline","sourceUrl":"https://celestrak.org/NORAD/elements/gp.php?GROUP=geo&FORMAT=tle","tleEpochUtc":"2026-06-14T09:57:04.254Z","orbitClass":"GEO"},{"id":"42709","noradId":"42709","name":"SES-15","line1":"1 42709U 17026A   26165.51016869  .00000067  00000+0  00000+0 0  9995","line2":"2 42709   0.0196 336.5575 0000361  56.3484 284.3912  1.00268126  7400","kind":"satellite","owner":"Commercial GEO","country":"SES","countryCode":"SES","objectType":"PAYLOAD","intlDesignator":"2017-026A","launchDate":"2017-05-18","periodMinutes":1436.16,"inclinationDeg":0.02,"apogeeKm":35789,"perigeeKm":35786,"source":"offline","sourceUrl":"https://celestrak.org/NORAD/elements/gp.php?GROUP=geo&FORMAT=tle","tleEpochUtc":"2026-06-14T12:14:38.574Z","orbitClass":"GEO"},{"id":"42738","noradId":"42738","name":"QZS-2 (MICHIBIKI-2)","line1":"1 42738U 17028A   26160.53939596 -.00000147  00000+0  00000+0 0  9997","line2":"2 42738  39.4388 243.2674 0760581 269.1776  81.0235  1.00285994  7547","kind":"satellite","owner":"Japan (JAXA)","country":"Japan (JAXA)","countryCode":"JPN","objectType":"PAYLOAD","intlDesignator":"2017-028A","launchDate":"2017-06-01","periodMinutes":1435.89,"inclinationDeg":39.44,"apogeeKm":38989,"perigeeKm":32576,"source":"offline","sourceUrl":"https://celestrak.org/NORAD/elements/gp.php?GROUP=geo&FORMAT=tle","tleEpochUtc":"2026-06-09T12:56:43.810Z","orbitClass":"GEO"},{"id":"42740","noradId":"42740","name":"VIASAT-2","line1":"1 42740U 17029A   26165.60348449 -.00000258  00000+0  00000+0 0  9998","line2":"2 42740   0.0176 298.7981 0000165  45.9290  65.5376  1.00271407 33176","kind":"satellite","owner":"United States","country":"United States","countryCode":"US","objectType":"PAYLOAD","intlDesignator":"2017-029A","launchDate":"2017-06-01","periodMinutes":1436.09,"inclinationDeg":0.02,"apogeeKm":35787,"perigeeKm":35786,"source":"offline","sourceUrl":"https://celestrak.org/NORAD/elements/gp.php?GROUP=geo&FORMAT=tle","tleEpochUtc":"2026-06-14T14:29:01.059Z","orbitClass":"GEO"},{"id":"42741","noradId":"42741","name":"EUTELSAT 172B","line1":"1 42741U 17029B   26165.55322354  .00000001  00000+0  00000+0 0  9995","line2":"2 42741   0.0124  84.4258 0000248 133.5970  56.0143  1.00271281 33715","kind":"satellite","owner":"Commercial GEO","country":"EUTE","countryCode":"EUTE","objectType":"PAYLOAD","intlDesignator":"2017-029B","launchDate":"2017-06-01","periodMinutes":1436.08,"inclinationDeg":0.04,"apogeeKm":35787,"perigeeKm":35785,"source":"offline","sourceUrl":"https://celestrak.org/NORAD/elements/gp.php?GROUP=geo&FORMAT=tle","tleEpochUtc":"2026-06-14T13:16:38.513Z","orbitClass":"GEO"},{"id":"42747","noradId":"42747","name":"GSAT-19","line1":"1 42747U 17031A   26165.55565876  .00000132  00000+0  00000+0 0  9997","line2":"2 42747   0.0452 265.8980 0007105 160.2741  84.5831  1.00273606 33122","kind":"satellite","owner":"ISRO","country":"India (ISRO)","countryCode":"IND","objectType":"PAYLOAD","intlDesignator":"2017-031A","launchDate":"2017-06-05","periodMinutes":1436.08,"inclinationDeg":0.05,"apogeeKm":35816,"perigeeKm":35756,"source":"offline","sourceUrl":"https://celestrak.org/NORAD/elements/gp.php?GROUP=geo&FORMAT=tle","tleEpochUtc":"2026-06-14T13:20:08.916Z","orbitClass":"GEO"},{"id":"42749","noradId":"42749","name":"ECHOSTAR 21","line1":"1 42749U 17032A   26165.61943123  .00000072  00000+0  00000+0 0  9995","line2":"2 42749   1.7712 355.5357 0002025  95.7066  44.9383  1.00272401 33072","kind":"satellite","owner":"United States","country":"United States","countryCode":"US","objectType":"PAYLOAD","intlDesignator":"2017-032A","launchDate":"2017-06-08","periodMinutes":1436.09,"inclinationDeg":1.77,"apogeeKm":35795,"perigeeKm":35778,"source":"offline","sourceUrl":"https://celestrak.org/NORAD/elements/gp.php?GROUP=geo&FORMAT=tle","tleEpochUtc":"2026-06-14T14:51:58.858Z","orbitClass":"GEO"},{"id":"42801","noradId":"42801","name":"BULGARIASAT-1","line1":"1 42801U 17038A   26165.61778455  .00000018  00000+0  00000+0 0  9994","line2":"2 42801   0.0128 354.8855 0003163  99.4575  32.8819  1.00271225 32824","kind":"satellite","owner":"BUL","country":"BUL","countryCode":"BUL","objectType":"PAYLOAD","intlDesignator":"2017-038A","launchDate":"2017-06-23","periodMinutes":1436.13,"inclinationDeg":0.01,"apogeeKm":35801,"perigeeKm":35774,"source":"offline","sourceUrl":"https://celestrak.org/NORAD/elements/gp.php?GROUP=geo&FORMAT=tle","tleEpochUtc":"2026-06-14T14:49:36.585Z","orbitClass":"GEO"},{"id":"42814","noradId":"42814","name":"HELLAS-SAT 3","line1":"1 42814U 17040A   26165.62515125  .00000159  00000+0  00000+0 0  9991","line2":"2 42814   0.0434  37.6494 0004725  14.4829 114.8299  1.00269838 32782","kind":"satellite","owner":"GREC","country":"GREC","countryCode":"GREC","objectType":"PAYLOAD","intlDesignator":"2017-040A","launchDate":"2017-06-28","periodMinutes":1436.13,"inclinationDeg":0.04,"apogeeKm":35807,"perigeeKm":35767,"source":"offline","sourceUrl":"https://celestrak.org/NORAD/elements/gp.php?GROUP=geo&FORMAT=tle","tleEpochUtc":"2026-06-14T15:00:13.068Z","orbitClass":"GEO"},{"id":"42815","noradId":"42815","name":"GSAT-17","line1":"1 42815U 17040B   26165.64398031  .00000000  00000+0  00000+0 0  9994","line2":"2 42815   0.0206 351.2806 0002130 314.9723 282.0188  1.00269238 32768","kind":"satellite","owner":"ISRO","country":"India (ISRO)","countryCode":"IND","objectType":"PAYLOAD","intlDesignator":"2017-040B","launchDate":"2017-06-28","periodMinutes":1436.11,"inclinationDeg":0.02,"apogeeKm":35796,"perigeeKm":35778,"source":"offline","sourceUrl":"https://celestrak.org/NORAD/elements/gp.php?GROUP=geo&FORMAT=tle","tleEpochUtc":"2026-06-14T15:27:19.898Z","orbitClass":"GEO"}